{
  "type": "FeatureCollection",
  "features": [
    {
      "type": "Feature",
      "id": "QNG_zhili",
      "properties": {
        "name": "直隶",
        "administration": "行省",
        "capital_label": "保定",
        "navigation_center": [
          115.49,
          38.86
        ],
        "rural_scenario_weight": 27,
        "note": "京师及天津归入直隶；热河旗地另列管理区。",
        "precision": "Original coarse gameplay schematic, not surveyed 1836 boundaries"
      },
      "geometry": {
        "type": "MultiPolygon",
        "coordinates": [
          [
            [
              [
                113.5,
                36.1
              ],
              [
                115.4,
                36.1
              ],
              [
                116.1,
                37.2
              ],
              [
                117.7,
                38.2
              ],
              [
                119.8,
                39.9
              ],
              [
                119.1,
                40.6
              ],
              [
                116.2,
                40.6
              ],
              [
                114.1,
                41.1
              ],
              [
                113.7,
                39.1
              ],
              [
                114.2,
                37.3
              ],
              [
                113.5,
                36.1
              ]
            ]
          ]
        ]
      }
    },
    {
      "type": "Feature",
      "id": "QNG_shandong",
      "properties": {
        "name": "山东",
        "administration": "行省",
        "capital_label": "济南",
        "navigation_center": [
          117.02,
          36.66
        ],
        "rural_scenario_weight": 28,
        "note": "登州、济南等城属山东。",
        "precision": "Original coarse gameplay schematic, not surveyed 1836 boundaries"
      },
      "geometry": {
        "type": "MultiPolygon",
        "coordinates": [
          [
            [
              [
                115.4,
                34.6
              ],
              [
                118.2,
                34.6
              ],
              [
                119.5,
                35.2
              ],
              [
                121.0,
                36.5
              ],
              [
                122.8,
                37.5
              ],
              [
                120.8,
                38.2
              ],
              [
                118.7,
                37.9
              ],
              [
                117.7,
                38.2
              ],
              [
                116.1,
                37.2
              ],
              [
                115.4,
                36.1
              ],
              [
                115.4,
                34.6
              ]
            ]
          ]
        ]
      }
    },
    {
      "type": "Feature",
      "id": "QNG_shanxi",
      "properties": {
        "name": "山西",
        "administration": "行省",
        "capital_label": "太原",
        "navigation_center": [
          112.56,
          37.87
        ],
        "rural_scenario_weight": 16,
        "note": "边界为黄河、太行山地的简化示意。",
        "precision": "Original coarse gameplay schematic, not surveyed 1836 boundaries"
      },
      "geometry": {
        "type": "MultiPolygon",
        "coordinates": [
          [
            [
              [
                110.2,
                34.6
              ],
              [
                111.7,
                34.5
              ],
              [
                113.5,
                36.1
              ],
              [
                114.2,
                37.3
              ],
              [
                113.7,
                39.1
              ],
              [
                114.1,
                41.1
              ],
              [
                112.0,
                40.4
              ],
              [
                110.4,
                40.6
              ],
              [
                111.2,
                38.8
              ],
              [
                110.5,
                36.7
              ],
              [
                110.2,
                34.6
              ]
            ]
          ]
        ]
      }
    },
    {
      "type": "Feature",
      "id": "QNG_henan",
      "properties": {
        "name": "河南",
        "administration": "行省",
        "capital_label": "开封",
        "navigation_center": [
          114.31,
          34.8
        ],
        "rural_scenario_weight": 25,
        "note": "开封与洛阳归属河南。",
        "precision": "Original coarse gameplay schematic, not surveyed 1836 boundaries"
      },
      "geometry": {
        "type": "MultiPolygon",
        "coordinates": [
          [
            [
              [
                110.2,
                34.6
              ],
              [
                111.7,
                34.5
              ],
              [
                113.5,
                36.1
              ],
              [
                115.4,
                36.1
              ],
              [
                115.4,
                34.6
              ],
              [
                116.5,
                33.0
              ],
              [
                115.2,
                31.5
              ],
              [
                113.2,
                31.8
              ],
              [
                111.0,
                33.3
              ],
              [
                110.2,
                34.6
              ]
            ]
          ]
        ]
      }
    },
    {
      "type": "Feature",
      "id": "QNG_shaanxi",
      "properties": {
        "name": "陕西",
        "administration": "行省",
        "capital_label": "西安",
        "navigation_center": [
          108.94,
          34.34
        ],
        "rural_scenario_weight": 10,
        "note": "陕北、关中、汉中合为陕西。",
        "precision": "Original coarse gameplay schematic, not surveyed 1836 boundaries"
      },
      "geometry": {
        "type": "MultiPolygon",
        "coordinates": [
          [
            [
              [
                105.7,
                32.4
              ],
              [
                108.5,
                31.8
              ],
              [
                111.0,
                33.3
              ],
              [
                110.2,
                34.6
              ],
              [
                110.5,
                36.7
              ],
              [
                111.2,
                38.8
              ],
              [
                110.4,
                40.6
              ],
              [
                107.4,
                39.3
              ],
              [
                107.0,
                37.0
              ],
              [
                106.0,
                35.0
              ],
              [
                105.7,
                32.4
              ]
            ]
          ]
        ]
      }
    },
    {
      "type": "Feature",
      "id": "QNG_gansu",
      "properties": {
        "name": "甘肃",
        "administration": "行省",
        "capital_label": "兰州",
        "navigation_center": [
          103.82,
          36.06
        ],
        "rural_scenario_weight": 14,
        "note": "包括宁夏府与西宁府一带；新疆此时尚未建省。",
        "precision": "Original coarse gameplay schematic, not surveyed 1836 boundaries"
      },
      "geometry": {
        "type": "MultiPolygon",
        "coordinates": [
          [
            [
              [
                92.5,
                39.0
              ],
              [
                94.0,
                41.2
              ],
              [
                97.7,
                42.8
              ],
              [
                101.0,
                41.7
              ],
              [
                104.2,
                41.8
              ],
              [
                107.4,
                39.3
              ],
              [
                107.0,
                37.0
              ],
              [
                106.0,
                35.0
              ],
              [
                105.7,
                32.4
              ],
              [
                102.5,
                32.4
              ],
              [
                101.8,
                34.0
              ],
              [
                102.4,
                36.0
              ],
              [
                100.0,
                37.5
              ],
              [
                97.0,
                38.2
              ],
              [
                92.5,
                39.0
              ]
            ]
          ]
        ]
      }
    },
    {
      "type": "Feature",
      "id": "QNG_jiangsu",
      "properties": {
        "name": "江苏",
        "administration": "行省",
        "capital_label": "苏州／江宁",
        "navigation_center": [
          119.44,
          32.21
        ],
        "rural_scenario_weight": 38,
        "note": "江宁、苏州、扬州与上海均在江苏范围内。",
        "precision": "Original coarse gameplay schematic, not surveyed 1836 boundaries"
      },
      "geometry": {
        "type": "MultiPolygon",
        "coordinates": [
          [
            [
              [
                116.5,
                33.0
              ],
              [
                115.4,
                34.6
              ],
              [
                118.2,
                34.6
              ],
              [
                119.5,
                35.2
              ],
              [
                120.4,
                34.2
              ],
              [
                121.0,
                32.5
              ],
              [
                122.0,
                31.4
              ],
              [
                121.0,
                30.7
              ],
              [
                119.2,
                31.2
              ],
              [
                118.3,
                32.5
              ],
              [
                116.5,
                33.0
              ]
            ]
          ]
        ]
      }
    },
    {
      "type": "Feature",
      "id": "QNG_anhui",
      "properties": {
        "name": "安徽",
        "administration": "行省",
        "capital_label": "安庆",
        "navigation_center": [
          117.05,
          30.51
        ],
        "rural_scenario_weight": 32,
        "note": "安庆、芜湖归属安徽。",
        "precision": "Original coarse gameplay schematic, not surveyed 1836 boundaries"
      },
      "geometry": {
        "type": "MultiPolygon",
        "coordinates": [
          [
            [
              [
                115.2,
                31.5
              ],
              [
                116.5,
                33.0
              ],
              [
                118.3,
                32.5
              ],
              [
                119.2,
                31.2
              ],
              [
                118.9,
                30.0
              ],
              [
                117.8,
                29.4
              ],
              [
                116.1,
                29.8
              ],
              [
                115.5,
                30.5
              ],
              [
                115.2,
                31.5
              ]
            ]
          ]
        ]
      }
    },
    {
      "type": "Feature",
      "id": "QNG_zhejiang",
      "properties": {
        "name": "浙江",
        "administration": "行省",
        "capital_label": "杭州",
        "navigation_center": [
          120.15,
          30.27
        ],
        "rural_scenario_weight": 27,
        "note": "杭州、宁波、绍兴、温州均归浙江。",
        "precision": "Original coarse gameplay schematic, not surveyed 1836 boundaries"
      },
      "geometry": {
        "type": "MultiPolygon",
        "coordinates": [
          [
            [
              [
                117.8,
                29.4
              ],
              [
                118.9,
                30.0
              ],
              [
                119.2,
                31.2
              ],
              [
                121.0,
                30.7
              ],
              [
                122.0,
                30.4
              ],
              [
                122.1,
                29.7
              ],
              [
                121.6,
                28.3
              ],
              [
                120.5,
                27.0
              ],
              [
                119.4,
                27.4
              ],
              [
                118.4,
                28.4
              ],
              [
                117.8,
                29.4
              ]
            ]
          ]
        ]
      }
    },
    {
      "type": "Feature",
      "id": "QNG_jiangxi",
      "properties": {
        "name": "江西",
        "administration": "行省",
        "capital_label": "南昌",
        "navigation_center": [
          115.89,
          28.68
        ],
        "rural_scenario_weight": 28,
        "note": "九江和南昌归属江西。",
        "precision": "Original coarse gameplay schematic, not surveyed 1836 boundaries"
      },
      "geometry": {
        "type": "MultiPolygon",
        "coordinates": [
          [
            [
              [
                113.9,
                24.5
              ],
              [
                115.9,
                24.5
              ],
              [
                116.4,
                25.5
              ],
              [
                116.8,
                27.2
              ],
              [
                118.4,
                28.4
              ],
              [
                117.8,
                29.4
              ],
              [
                116.1,
                29.8
              ],
              [
                114.8,
                29.4
              ],
              [
                113.6,
                28.0
              ],
              [
                113.8,
                26.0
              ],
              [
                113.9,
                24.5
              ]
            ]
          ]
        ]
      }
    },
    {
      "type": "Feature",
      "id": "QNG_hubei",
      "properties": {
        "name": "湖北",
        "administration": "行省",
        "capital_label": "武昌",
        "navigation_center": [
          114.3,
          30.55
        ],
        "rural_scenario_weight": 28,
        "note": "武昌、汉口按两处历史聚落记录。",
        "precision": "Original coarse gameplay schematic, not surveyed 1836 boundaries"
      },
      "geometry": {
        "type": "MultiPolygon",
        "coordinates": [
          [
            [
              [
                108.5,
                31.8
              ],
              [
                111.0,
                33.3
              ],
              [
                113.2,
                31.8
              ],
              [
                115.2,
                31.5
              ],
              [
                115.5,
                30.5
              ],
              [
                116.1,
                29.8
              ],
              [
                114.8,
                29.4
              ],
              [
                112.0,
                29.5
              ],
              [
                109.8,
                29.2
              ],
              [
                108.5,
                29.4
              ],
              [
                108.5,
                31.8
              ]
            ]
          ]
        ]
      }
    },
    {
      "type": "Feature",
      "id": "QNG_hunan",
      "properties": {
        "name": "湖南",
        "administration": "行省",
        "capital_label": "长沙",
        "navigation_center": [
          112.97,
          28.19
        ],
        "rural_scenario_weight": 23,
        "note": "长沙为本情景已建模城市，其余居民计入乡村人口。",
        "precision": "Original coarse gameplay schematic, not surveyed 1836 boundaries"
      },
      "geometry": {
        "type": "MultiPolygon",
        "coordinates": [
          [
            [
              [
                108.8,
                26.0
              ],
              [
                110.2,
                26.0
              ],
              [
                111.7,
                25.0
              ],
              [
                113.9,
                24.5
              ],
              [
                113.8,
                26.0
              ],
              [
                113.6,
                28.0
              ],
              [
                114.8,
                29.4
              ],
              [
                112.0,
                29.5
              ],
              [
                109.8,
                29.2
              ],
              [
                109.0,
                28.4
              ],
              [
                108.8,
                26.0
              ]
            ]
          ]
        ]
      }
    },
    {
      "type": "Feature",
      "id": "QNG_sichuan",
      "properties": {
        "name": "四川",
        "administration": "行省",
        "capital_label": "成都",
        "navigation_center": [
          104.07,
          30.66
        ],
        "rural_scenario_weight": 33,
        "note": "重庆属于四川；川边与藏区接界仅作示意。",
        "precision": "Original coarse gameplay schematic, not surveyed 1836 boundaries"
      },
      "geometry": {
        "type": "MultiPolygon",
        "coordinates": [
          [
            [
              [
                97.5,
                29.0
              ],
              [
                99.0,
                31.5
              ],
              [
                99.0,
                33.0
              ],
              [
                102.5,
                32.4
              ],
              [
                105.7,
                32.4
              ],
              [
                108.5,
                31.8
              ],
              [
                108.5,
                29.4
              ],
              [
                109.0,
                28.4
              ],
              [
                107.2,
                28.2
              ],
              [
                105.7,
                28.2
              ],
              [
                104.5,
                28.6
              ],
              [
                103.5,
                26.5
              ],
              [
                101.5,
                26.8
              ],
              [
                100.0,
                28.0
              ],
              [
                97.5,
                29.0
              ]
            ]
          ]
        ]
      }
    },
    {
      "type": "Feature",
      "id": "QNG_fujian",
      "properties": {
        "name": "福建",
        "administration": "行省",
        "capital_label": "福州",
        "navigation_center": [
          119.3,
          26.07
        ],
        "rural_scenario_weight": 18,
        "note": "台湾府当时隶福建；图形不表示清廷对岛上全部地区的同等实际控制。",
        "precision": "Original coarse gameplay schematic, not surveyed 1836 boundaries"
      },
      "geometry": {
        "type": "MultiPolygon",
        "coordinates": [
          [
            [
              [
                115.9,
                24.5
              ],
              [
                116.9,
                24.0
              ],
              [
                117.6,
                23.3
              ],
              [
                119.2,
                24.8
              ],
              [
                120.2,
                26.0
              ],
              [
                120.5,
                27.0
              ],
              [
                119.4,
                27.4
              ],
              [
                118.4,
                28.4
              ],
              [
                116.8,
                27.2
              ],
              [
                116.4,
                25.5
              ],
              [
                115.9,
                24.5
              ]
            ]
          ],
          [
            [
              [
                120.0,
                22.0
              ],
              [
                120.8,
                21.9
              ],
              [
                121.5,
                23.1
              ],
              [
                122.0,
                25.1
              ],
              [
                121.4,
                25.4
              ],
              [
                120.3,
                23.8
              ],
              [
                120.0,
                22.0
              ]
            ]
          ]
        ]
      }
    },
    {
      "type": "Feature",
      "id": "QNG_guangdong",
      "properties": {
        "name": "广东",
        "administration": "行省",
        "capital_label": "广州",
        "navigation_center": [
          113.26,
          23.13
        ],
        "rural_scenario_weight": 22,
        "note": "含琼州府及今雷州、钦州一带；没有独立的海南省。",
        "precision": "Original coarse gameplay schematic, not surveyed 1836 boundaries"
      },
      "geometry": {
        "type": "MultiPolygon",
        "coordinates": [
          [
            [
              [
                109.2,
                21.0
              ],
              [
                110.6,
                20.2
              ],
              [
                111.8,
                21.5
              ],
              [
                114.5,
                22.3
              ],
              [
                116.8,
                22.9
              ],
              [
                117.6,
                23.3
              ],
              [
                116.9,
                24.0
              ],
              [
                115.9,
                24.5
              ],
              [
                113.9,
                24.5
              ],
              [
                111.7,
                25.0
              ],
              [
                111.0,
                23.6
              ],
              [
                109.8,
                22.6
              ],
              [
                109.2,
                21.0
              ]
            ]
          ],
          [
            [
              [
                108.5,
                19.5
              ],
              [
                109.2,
                18.2
              ],
              [
                110.0,
                18.1
              ],
              [
                111.1,
                19.7
              ],
              [
                110.6,
                20.2
              ],
              [
                109.4,
                20.2
              ],
              [
                108.5,
                19.5
              ]
            ]
          ]
        ]
      }
    },
    {
      "type": "Feature",
      "id": "QNG_guangxi",
      "properties": {
        "name": "广西",
        "administration": "行省",
        "capital_label": "桂林",
        "navigation_center": [
          110.3,
          25.28
        ],
        "rural_scenario_weight": 8,
        "note": "桂林为省城；沿海边界按清代省制概略处理。",
        "precision": "Original coarse gameplay schematic, not surveyed 1836 boundaries"
      },
      "geometry": {
        "type": "MultiPolygon",
        "coordinates": [
          [
            [
              [
                104.5,
                23.5
              ],
              [
                105.8,
                22.7
              ],
              [
                106.8,
                22.0
              ],
              [
                108.0,
                21.7
              ],
              [
                109.2,
                21.0
              ],
              [
                109.8,
                22.6
              ],
              [
                111.0,
                23.6
              ],
              [
                111.7,
                25.0
              ],
              [
                110.2,
                26.0
              ],
              [
                108.8,
                26.0
              ],
              [
                106.7,
                25.5
              ],
              [
                105.7,
                24.8
              ],
              [
                104.5,
                23.5
              ]
            ]
          ]
        ]
      }
    },
    {
      "type": "Feature",
      "id": "QNG_yunnan",
      "properties": {
        "name": "云南",
        "administration": "行省",
        "capital_label": "云南府",
        "navigation_center": [
          102.71,
          25.04
        ],
        "rural_scenario_weight": 7,
        "note": "城市数据中的昆明对应云南府城。",
        "precision": "Original coarse gameplay schematic, not surveyed 1836 boundaries"
      },
      "geometry": {
        "type": "MultiPolygon",
        "coordinates": [
          [
            [
              [
                97.5,
                29.0
              ],
              [
                100.0,
                28.0
              ],
              [
                101.5,
                26.8
              ],
              [
                103.5,
                26.5
              ],
              [
                104.5,
                26.5
              ],
              [
                104.5,
                23.5
              ],
              [
                105.8,
                22.7
              ],
              [
                104.0,
                22.8
              ],
              [
                102.5,
                22.3
              ],
              [
                101.0,
                21.0
              ],
              [
                100.0,
                21.5
              ],
              [
                99.0,
                23.0
              ],
              [
                97.5,
                24.0
              ],
              [
                98.8,
                25.5
              ],
              [
                97.5,
                29.0
              ]
            ]
          ]
        ]
      }
    },
    {
      "type": "Feature",
      "id": "QNG_guizhou",
      "properties": {
        "name": "贵州",
        "administration": "行省",
        "capital_label": "贵阳",
        "navigation_center": [
          106.71,
          26.58
        ],
        "rural_scenario_weight": 6,
        "note": "省界为概略地理分区。",
        "precision": "Original coarse gameplay schematic, not surveyed 1836 boundaries"
      },
      "geometry": {
        "type": "MultiPolygon",
        "coordinates": [
          [
            [
              [
                104.5,
                23.5
              ],
              [
                105.7,
                24.8
              ],
              [
                106.7,
                25.5
              ],
              [
                108.8,
                26.0
              ],
              [
                109.0,
                28.4
              ],
              [
                107.2,
                28.2
              ],
              [
                105.7,
                28.2
              ],
              [
                104.5,
                28.6
              ],
              [
                103.5,
                26.5
              ],
              [
                104.5,
                26.5
              ],
              [
                104.5,
                23.5
              ]
            ]
          ]
        ]
      }
    },
    {
      "type": "Feature",
      "id": "QNG_shengjing",
      "properties": {
        "name": "盛京",
        "administration": "将军辖区",
        "capital_label": "盛京",
        "navigation_center": [
          123.45,
          41.8
        ],
        "rural_scenario_weight": 2,
        "note": "奉天尚未改设近代行省；与吉林、黑龙江将军辖区分别显示。",
        "precision": "Original coarse gameplay schematic, not surveyed 1836 boundaries"
      },
      "geometry": {
        "type": "MultiPolygon",
        "coordinates": [
          [
            [
              [
                119.1,
                40.6
              ],
              [
                119.8,
                39.9
              ],
              [
                121.5,
                38.6
              ],
              [
                123.2,
                39.3
              ],
              [
                125.1,
                40.4
              ],
              [
                125.0,
                42.3
              ],
              [
                123.5,
                43.2
              ],
              [
                121.5,
                43.2
              ],
              [
                120.0,
                42.0
              ],
              [
                119.1,
                40.6
              ]
            ]
          ]
        ]
      }
    },
    {
      "type": "Feature",
      "id": "QNG_jilin",
      "properties": {
        "name": "吉林",
        "administration": "将军辖区",
        "capital_label": "吉林",
        "navigation_center": [
          126.55,
          43.84
        ],
        "rural_scenario_weight": 1,
        "note": "包括黑龙江以南、乌苏里江以东的历史辖境示意；不是现代吉林省。",
        "precision": "Original coarse gameplay schematic, not surveyed 1836 boundaries"
      },
      "geometry": {
        "type": "MultiPolygon",
        "coordinates": [
          [
            [
              [
                121.5,
                43.2
              ],
              [
                123.5,
                43.2
              ],
              [
                125.0,
                42.3
              ],
              [
                125.1,
                40.4
              ],
              [
                127.2,
                41.2
              ],
              [
                130.7,
                42.3
              ],
              [
                133.0,
                44.0
              ],
              [
                136.5,
                45.5
              ],
              [
                140.5,
                48.3
              ],
              [
                140.0,
                51.0
              ],
              [
                136.0,
                49.7
              ],
              [
                132.0,
                47.4
              ],
              [
                128.0,
                45.5
              ],
              [
                125.0,
                45.4
              ],
              [
                122.5,
                45.0
              ],
              [
                121.5,
                43.2
              ]
            ]
          ]
        ]
      }
    },
    {
      "type": "Feature",
      "id": "QNG_heilongjiang",
      "properties": {
        "name": "黑龙江",
        "administration": "将军辖区",
        "capital_label": "齐齐哈尔",
        "navigation_center": [
          123.92,
          47.35
        ],
        "rural_scenario_weight": 1,
        "note": "外兴安岭、黑龙江流域仅以简化历史辖境表示。",
        "precision": "Original coarse gameplay schematic, not surveyed 1836 boundaries"
      },
      "geometry": {
        "type": "MultiPolygon",
        "coordinates": [
          [
            [
              [
                118.0,
                49.0
              ],
              [
                119.0,
                52.0
              ],
              [
                122.5,
                53.8
              ],
              [
                125.5,
                55.0
              ],
              [
                131.0,
                55.5
              ],
              [
                136.0,
                54.0
              ],
              [
                140.0,
                51.0
              ],
              [
                136.0,
                49.7
              ],
              [
                132.0,
                47.4
              ],
              [
                128.0,
                45.5
              ],
              [
                125.0,
                45.4
              ],
              [
                122.5,
                45.0
              ],
              [
                120.0,
                46.5
              ],
              [
                118.0,
                49.0
              ]
            ]
          ]
        ]
      }
    },
    {
      "type": "Feature",
      "id": "QNG_rehe",
      "properties": {
        "name": "热河",
        "administration": "都统及旗地管理区",
        "capital_label": "承德",
        "navigation_center": [
          117.94,
          40.98
        ],
        "rural_scenario_weight": 1,
        "note": "承德府的民政与直隶、热河都统的旗地管辖并存；此处为游戏管理区，不称热河省。",
        "precision": "Original coarse gameplay schematic, not surveyed 1836 boundaries"
      },
      "geometry": {
        "type": "MultiPolygon",
        "coordinates": [
          [
            [
              [
                114.1,
                41.1
              ],
              [
                116.2,
                40.6
              ],
              [
                119.1,
                40.6
              ],
              [
                120.0,
                42.0
              ],
              [
                119.4,
                43.0
              ],
              [
                116.0,
                43.0
              ],
              [
                114.0,
                42.0
              ],
              [
                114.1,
                41.1
              ]
            ]
          ]
        ]
      }
    },
    {
      "type": "Feature",
      "id": "QNG_inner_mongolia",
      "properties": {
        "name": "内蒙古盟旗",
        "administration": "盟旗合并管理区",
        "capital_label": "归化城",
        "navigation_center": [
          111.67,
          40.82
        ],
        "rural_scenario_weight": 2,
        "note": "多个盟旗合并为一处游戏管理区，非单一清代省级行政机构。",
        "precision": "Original coarse gameplay schematic, not surveyed 1836 boundaries"
      },
      "geometry": {
        "type": "MultiPolygon",
        "coordinates": [
          [
            [
              [
                101.0,
                41.7
              ],
              [
                104.2,
                41.8
              ],
              [
                107.4,
                39.3
              ],
              [
                110.4,
                40.6
              ],
              [
                112.0,
                40.4
              ],
              [
                114.1,
                41.1
              ],
              [
                114.0,
                42.0
              ],
              [
                116.0,
                43.0
              ],
              [
                119.4,
                43.0
              ],
              [
                120.0,
                42.0
              ],
              [
                121.5,
                43.2
              ],
              [
                122.5,
                45.0
              ],
              [
                120.0,
                46.5
              ],
              [
                118.0,
                49.0
              ],
              [
                115.0,
                47.0
              ],
              [
                112.0,
                44.5
              ],
              [
                107.0,
                43.7
              ],
              [
                103.0,
                42.8
              ],
              [
                101.0,
                41.7
              ]
            ]
          ]
        ]
      }
    },
    {
      "type": "Feature",
      "id": "QNG_outer_mongolia",
      "properties": {
        "name": "外蒙古盟旗",
        "administration": "盟旗及驻臣合并管理区",
        "capital_label": "库伦",
        "navigation_center": [
          106.92,
          47.92
        ],
        "rural_scenario_weight": 1,
        "note": "喀尔喀等盟旗及驻臣辖境的合并游戏分区，非行省。",
        "precision": "Original coarse gameplay schematic, not surveyed 1836 boundaries"
      },
      "geometry": {
        "type": "MultiPolygon",
        "coordinates": [
          [
            [
              [
                87.5,
                49.0
              ],
              [
                90.0,
                50.5
              ],
              [
                94.5,
                50.0
              ],
              [
                98.0,
                52.5
              ],
              [
                102.5,
                51.5
              ],
              [
                106.0,
                50.5
              ],
              [
                110.0,
                50.0
              ],
              [
                115.0,
                49.8
              ],
              [
                118.0,
                49.0
              ],
              [
                115.0,
                47.0
              ],
              [
                112.0,
                44.5
              ],
              [
                107.0,
                43.7
              ],
              [
                103.0,
                42.8
              ],
              [
                101.0,
                41.7
              ],
              [
                97.7,
                42.8
              ],
              [
                94.0,
                44.0
              ],
              [
                91.0,
                46.0
              ],
              [
                87.5,
                49.0
              ]
            ]
          ]
        ]
      }
    },
    {
      "type": "Feature",
      "id": "QNG_ili",
      "properties": {
        "name": "新疆军府",
        "administration": "伊犁将军等合并管理区",
        "capital_label": "惠远",
        "navigation_center": [
          80.87,
          44.03
        ],
        "rural_scenario_weight": 2,
        "note": "1836年采用军府制度；新疆于1884年建省，因此此处不称新疆省。",
        "precision": "Original coarse gameplay schematic, not surveyed 1836 boundaries"
      },
      "geometry": {
        "type": "MultiPolygon",
        "coordinates": [
          [
            [
              [
                73.0,
                39.0
              ],
              [
                74.0,
                36.5
              ],
              [
                78.0,
                35.0
              ],
              [
                82.0,
                35.0
              ],
              [
                87.0,
                36.0
              ],
              [
                90.0,
                37.0
              ],
              [
                92.5,
                39.0
              ],
              [
                94.0,
                41.2
              ],
              [
                97.7,
                42.8
              ],
              [
                94.0,
                44.0
              ],
              [
                91.0,
                46.0
              ],
              [
                87.5,
                49.0
              ],
              [
                83.0,
                48.0
              ],
              [
                81.0,
                45.5
              ],
              [
                78.0,
                43.5
              ],
              [
                74.0,
                42.0
              ],
              [
                73.0,
                39.0
              ]
            ]
          ]
        ]
      }
    },
    {
      "type": "Feature",
      "id": "QNG_tibet",
      "properties": {
        "name": "西藏",
        "administration": "驻藏大臣与噶厦辖境",
        "capital_label": "拉萨",
        "navigation_center": [
          91.13,
          29.65
        ],
        "rural_scenario_weight": 2,
        "note": "驻藏大臣与地方政务制度另列；图形不等同逐地行政控制。",
        "precision": "Original coarse gameplay schematic, not surveyed 1836 boundaries"
      },
      "geometry": {
        "type": "MultiPolygon",
        "coordinates": [
          [
            [
              [
                78.0,
                35.0
              ],
              [
                79.0,
                32.0
              ],
              [
                81.0,
                30.0
              ],
              [
                84.0,
                28.5
              ],
              [
                87.0,
                27.5
              ],
              [
                89.0,
                28.0
              ],
              [
                92.0,
                27.5
              ],
              [
                95.0,
                28.0
              ],
              [
                97.5,
                29.0
              ],
              [
                99.0,
                31.5
              ],
              [
                96.0,
                33.0
              ],
              [
                93.0,
                33.5
              ],
              [
                89.0,
                35.0
              ],
              [
                87.0,
                36.0
              ],
              [
                82.0,
                35.0
              ],
              [
                78.0,
                35.0
              ]
            ]
          ]
        ]
      }
    },
    {
      "type": "Feature",
      "id": "QNG_qinghai",
      "properties": {
        "name": "青海辖境",
        "administration": "办事大臣及旗地管理区",
        "capital_label": "西宁驻臣",
        "navigation_center": [
          99.2,
          35.5
        ],
        "rural_scenario_weight": 1,
        "note": "青海蒙古旗地等的游戏管理区；西宁府民政仍计甘肃，并无青海行省。",
        "precision": "Original coarse gameplay schematic, not surveyed 1836 boundaries"
      },
      "geometry": {
        "type": "MultiPolygon",
        "coordinates": [
          [
            [
              [
                87.0,
                36.0
              ],
              [
                89.0,
                35.0
              ],
              [
                93.0,
                33.5
              ],
              [
                96.0,
                33.0
              ],
              [
                99.0,
                31.5
              ],
              [
                99.0,
                33.0
              ],
              [
                102.5,
                32.4
              ],
              [
                101.8,
                34.0
              ],
              [
                102.4,
                36.0
              ],
              [
                100.0,
                37.5
              ],
              [
                97.0,
                38.2
              ],
              [
                92.5,
                39.0
              ],
              [
                90.0,
                37.0
              ],
              [
                87.0,
                36.0
              ]
            ]
          ]
        ]
      }
    }
  ]
}
